[{"OBJECT_NAME":"ION SCV-004","OBJECT_ID":"2022-002K","EPOCH":"2026-03-09T16:32:03.244416","MEAN_MOTION":15.29369331,"ECCENTRICITY":0.00072157,"INCLINATION":97.2961,"RA_OF_ASC_NODE":128.2294,"ARG_OF_PERICENTER":1.6783,"MEAN_ANOMALY":358.448,"EPHEMERIS_TYPE":0,"CLASSIFICATION_TYPE":"U","NORAD_CAT_ID":50993,"ELEMENT_SET_NO":999,"REV_AT_EPOCH":23008,"BSTAR":0.00023198467,"MEAN_MOTION_DOT":6.538e-5,"MEAN_MOTION_DDOT":0},{"OBJECT_NAME":"STARLINK-31458","OBJECT_ID":"2024-071T","EPOCH":"2026-03-09T03:25:41.763072","MEAN_MOTION":15.27563458,"ECCENTRICITY":9.83e-5,"INCLINATION":43.0047,"RA_OF_ASC_NODE":342.6879,"ARG_OF_PERICENTER":249.2821,"MEAN_ANOMALY":110.7925,"EPHEMERIS_TYPE":0,"CLASSIFICATION_TYPE":"U","NORAD_CAT_ID":59501,"ELEMENT_SET_NO":999,"REV_AT_EPOCH":10812,"BSTAR":-0.00013457073,"MEAN_MOTION_DOT":-3.961e-5,"MEAN_MOTION_DDOT":0}]
